[{"OBJECT_NAME":"STARLINK-32123","OBJECT_ID":"2024-132G","EPOCH":"2025-10-31T15:52:21.842688","MEAN_MOTION":15.30192399,"ECCENTRICITY":0.0001417,"INCLINATION":53.1628,"RA_OF_ASC_NODE":279.1252,"ARG_OF_PERICENTER":85.6665,"MEAN_ANOMALY":274.4497,"EPHEMERIS_TYPE":0,"CLASSIFICATION_TYPE":"U","NORAD_CAT_ID":60284,"ELEMENT_SET_NO":999,"REV_AT_EPOCH":7198,"BSTAR":2.7974e-5,"MEAN_MOTION_DOT":4.69e-6,"MEAN_MOTION_DDOT":0},{"OBJECT_NAME":"STARLINK-32122","OBJECT_ID":"2024-132H","EPOCH":"2025-10-31T06:13:38.114688","MEAN_MOTION":15.30194655,"ECCENTRICITY":0.0001412,"INCLINATION":53.1615,"RA_OF_ASC_NODE":293.6536,"ARG_OF_PERICENTER":97.4636,"MEAN_ANOMALY":262.6526,"EPHEMERIS_TYPE":0,"CLASSIFICATION_TYPE":"U","NORAD_CAT_ID":60285,"ELEMENT_SET_NO":999,"REV_AT_EPOCH":7174,"BSTAR":2.5892e-5,"MEAN_MOTION_DOT":4.08e-6,"MEAN_MOTION_DDOT":0},{"OBJECT_NAME":"STARLINK-31656","OBJECT_ID":"2024-132J","EPOCH":"2025-10-31T05:40:12.990144","MEAN_MOTION":15.30178398,"ECCENTRICITY":0.0001653,"INCLINATION":53.1601,"RA_OF_ASC_NODE":293.5121,"ARG_OF_PERICENTER":96.0885,"MEAN_ANOMALY":264.0304,"EPHEMERIS_TYPE":0,"CLASSIFICATION_TYPE":"U","NORAD_CAT_ID":60286,"ELEMENT_SET_NO":999,"REV_AT_EPOCH":7174,"BSTAR":5.6316e-5,"MEAN_MOTION_DOT":1.308e-5,"MEAN_MOTION_DDOT":0},{"OBJECT_NAME":"STARLINK-32114","OBJECT_ID":"2024-132K","EPOCH":"2025-10-31T16:15:57.968928","MEAN_MOTION":15.30171313,"ECCENTRICITY":0.0001119,"INCLINATION":53.1615,"RA_OF_ASC_NODE":291.9903,"ARG_OF_PERICENTER":92.6656,"MEAN_ANOMALY":267.4473,"EPHEMERIS_TYPE":0,"CLASSIFICATION_TYPE":"U","NORAD_CAT_ID":60287,"ELEMENT_SET_NO":999,"REV_AT_EPOCH":7180,"BSTAR":-0.00010814,"MEAN_MOTION_DOT":-3.557e-5,"MEAN_MOTION_DDOT":0},{"OBJECT_NAME":"STARLINK-31997","OBJECT_ID":"2024-132L","EPOCH":"2025-10-31T16:24:54.582048","MEAN_MOTION":15.30184181,"ECCENTRICITY":0.0001354,"INCLINATION":53.1611,"RA_OF_ASC_NODE":291.3202,"ARG_OF_PERICENTER":98.6434,"MEAN_ANOMALY":261.4721,"EPHEMERIS_TYPE":0,"CLASSIFICATION_TYPE":"U","NORAD_CAT_ID":60288,"ELEMENT_SET_NO":999,"REV_AT_EPOCH":7181,"BSTAR":-3.009e-5,"MEAN_MOTION_DOT":-1.25e-5,"MEAN_MOTION_DDOT":0},{"OBJECT_NAME":"STARLINK-32000","OBJECT_ID":"2024-132M","EPOCH":"2025-10-31T15:51:38.227104","MEAN_MOTION":15.30192993,"ECCENTRICITY":0.0001239,"INCLINATION":53.1612,"RA_OF_ASC_NODE":291.8906,"ARG_OF_PERICENTER":88.8312,"MEAN_ANOMALY":271.283,"EPHEMERIS_TYPE":0,"CLASSIFICATION_TYPE":"U","NORAD_CAT_ID":60289,"ELEMENT_SET_NO":999,"REV_AT_EPOCH":7180,"BSTAR":-1.3473e-5,"MEAN_MOTION_DOT":-7.58e-6,"MEAN_MOTION_DDOT":0},{"OBJECT_NAME":"STARLINK-32141","OBJECT_ID":"2024-132N","EPOCH":"2025-10-31T18:36:58.135104","MEAN_MOTION":15.30169559,"ECCENTRICITY":0.0001512,"INCLINATION":53.1606,"RA_OF_ASC_NODE":291.1841,"ARG_OF_PERICENTER":81.7187,"MEAN_ANOMALY":278.3985,"EPHEMERIS_TYPE":0,"CLASSIFICATION_TYPE":"U","NORAD_CAT_ID":60290,"ELEMENT_SET_NO":999,"REV_AT_EPOCH":7182,"BSTAR":-3.4806e-5,"MEAN_MOTION_DOT":-1.389e-5,"MEAN_MOTION_DDOT":0},{"OBJECT_NAME":"STARLINK-32142","OBJECT_ID":"2024-132P","EPOCH":"2025-10-31T16:32:30.162336","MEAN_MOTION":15.30194274,"ECCENTRICITY":0.0001369,"INCLINATION":53.1599,"RA_OF_ASC_NODE":291.3536,"ARG_OF_PERICENTER":90.0614,"MEAN_ANOMALY":270.0543,"EPHEMERIS_TYPE":0,"CLASSIFICATION_TYPE":"U","NORAD_CAT_ID":60291,"ELEMENT_SET_NO":999,"REV_AT_EPOCH":7181,"BSTAR":4.6814e-5,"MEAN_MOTION_DOT":1.027e-5,"MEAN_MOTION_DDOT":0},{"OBJECT_NAME":"STARLINK-32149","OBJECT_ID":"2024-132Q","EPOCH":"2025-10-31T15:56:12.166944","MEAN_MOTION":15.30187769,"ECCENTRICITY":0.0001375,"INCLINATION":53.1611,"RA_OF_ASC_NODE":291.9115,"ARG_OF_PERICENTER":100.056,"MEAN_ANOMALY":260.0596,"EPHEMERIS_TYPE":0,"CLASSIFICATION_TYPE":"U","NORAD_CAT_ID":60292,"ELEMENT_SET_NO":999,"REV_AT_EPOCH":7180,"BSTAR":-1.1848e-5,"MEAN_MOTION_DOT":-7.1e-6,"MEAN_MOTION_DDOT":0},{"OBJECT_NAME":"STARLINK-32159","OBJECT_ID":"2024-132R","EPOCH":"2025-10-31T16:29:28.195296","MEAN_MOTION":15.30183606,"ECCENTRICITY":0.0001351,"INCLINATION":53.1613,"RA_OF_ASC_NODE":291.3377,"ARG_OF_PERICENTER":101.1016,"MEAN_ANOMALY":259.0136,"EPHEMERIS_TYPE":0,"CLASSIFICATION_TYPE":"U","NORAD_CAT_ID":60293,"ELEMENT_SET_NO":999,"REV_AT_EPOCH":7181,"BSTAR":-3.0111e-5,"MEAN_MOTION_DOT":-1.25e-5,"MEAN_MOTION_DDOT":0},{"OBJECT_NAME":"STARLINK-32150","OBJECT_ID":"2024-132S","EPOCH":"2025-10-31T16:00:45.552096","MEAN_MOTION":15.30189314,"ECCENTRICITY":0.0001334,"INCLINATION":53.1611,"RA_OF_ASC_NODE":291.9313,"ARG_OF_PERICENTER":96.1401,"MEAN_ANOMALY":263.9751,"EPHEMERIS_TYPE":0,"CLASSIFICATION_TYPE":"U","NORAD_CAT_ID":60294,"ELEMENT_SET_NO":999,"REV_AT_EPOCH":7180,"BSTAR":2.4629e-6,"MEAN_MOTION_DOT":-2.86e-6,"MEAN_MOTION_DDOT":0},{"OBJECT_NAME":"STARLINK-32126","OBJECT_ID":"2024-132T","EPOCH":"2025-10-31T06:54:40.286592","MEAN_MOTION":15.30189038,"ECCENTRICITY":0.0001415,"INCLINATION":53.1612,"RA_OF_ASC_NODE":293.824,"ARG_OF_PERICENTER":93.0011,"MEAN_ANOMALY":267.1152,"EPHEMERIS_TYPE":0,"CLASSIFICATION_TYPE":"U","NORAD_CAT_ID":60295,"ELEMENT_SET_NO":999,"REV_AT_EPOCH":7174,"BSTAR":-1.6503e-5,"MEAN_MOTION_DOT":-8.48e-6,"MEAN_MOTION_DDOT":0},{"OBJECT_NAME":"STARLINK-32143","OBJECT_ID":"2024-132U","EPOCH":"2025-10-31T16:05:19.720032","MEAN_MOTION":15.30184534,"ECCENTRICITY":0.0002528,"INCLINATION":53.1611,"RA_OF_ASC_NODE":291.9509,"ARG_OF_PERICENTER":93.1465,"MEAN_ANOMALY":266.9826,"EPHEMERIS_TYPE":0,"CLASSIFICATION_TYPE":"U","NORAD_CAT_ID":60296,"ELEMENT_SET_NO":999,"REV_AT_EPOCH":7180,"BSTAR":-3.9153e-5,"MEAN_MOTION_DOT":-1.519e-5,"MEAN_MOTION_DDOT":0},{"OBJECT_NAME":"STARLINK-32034","OBJECT_ID":"2024-132V","EPOCH":"2025-10-31T06:21:13.600800","MEAN_MOTION":15.30200306,"ECCENTRICITY":0.0001203,"INCLINATION":53.1603,"RA_OF_ASC_NODE":293.6818,"ARG_OF_PERICENTER":88.4417,"MEAN_ANOMALY":271.6722,"EPHEMERIS_TYPE":0,"CLASSIFICATION_TYPE":"U","NORAD_CAT_ID":60297,"ELEMENT_SET_NO":999,"REV_AT_EPOCH":7174,"BSTAR":2.1183e-5,"MEAN_MOTION_DOT":2.68e-6,"MEAN_MOTION_DDOT":0},{"OBJECT_NAME":"STARLINK-32124","OBJECT_ID":"2024-132W","EPOCH":"2025-10-31T16:03:48.103200","MEAN_MOTION":15.30188046,"ECCENTRICITY":0.0001555,"INCLINATION":53.162,"RA_OF_ASC_NODE":291.9432,"ARG_OF_PERICENTER":86.4931,"MEAN_ANOMALY":273.6248,"EPHEMERIS_TYPE":0,"CLASSIFICATION_TYPE":"U","NORAD_CAT_ID":60298,"ELEMENT_SET_NO":999,"REV_AT_EPOCH":7180,"BSTAR":-1.3505e-5,"MEAN_MOTION_DOT":-7.59e-6,"MEAN_MOTION_DDOT":0},{"OBJECT_NAME":"STARLINK-32151","OBJECT_ID":"2024-132X","EPOCH":"2025-10-31T05:08:54.712032","MEAN_MOTION":15.30188703,"ECCENTRICITY":0.0001177,"INCLINATION":53.1605,"RA_OF_ASC_NODE":265.3874,"ARG_OF_PERICENTER":95.5474,"MEAN_ANOMALY":264.5661,"EPHEMERIS_TYPE":0,"CLASSIFICATION_TYPE":"U","NORAD_CAT_ID":60299,"ELEMENT_SET_NO":999,"REV_AT_EPOCH":7213,"BSTAR":1.4269e-6,"MEAN_MOTION_DOT":-3.17e-6,"MEAN_MOTION_DDOT":0},{"OBJECT_NAME":"STARLINK-32134","OBJECT_ID":"2024-132Y","EPOCH":"2025-10-31T06:07:32.994336","MEAN_MOTION":15.30203156,"ECCENTRICITY":0.0001318,"INCLINATION":53.1605,"RA_OF_ASC_NODE":293.6231,"ARG_OF_PERICENTER":82.326,"MEAN_ANOMALY":277.7891,"EPHEMERIS_TYPE":0,"CLASSIFICATION_TYPE":"U","NORAD_CAT_ID":60300,"ELEMENT_SET_NO":999,"REV_AT_EPOCH":7174,"BSTAR":5.4938e-5,"MEAN_MOTION_DOT":1.268e-5,"MEAN_MOTION_DDOT":0},{"OBJECT_NAME":"STARLINK-11147 [DTC]","OBJECT_ID":"2024-133A","EPOCH":"2025-10-31T17:04:35.372928","MEAN_MOTION":15.69692594,"ECCENTRICITY":5.76e-5,"INCLINATION":53.1592,"RA_OF_ASC_NODE":62.2629,"ARG_OF_PERICENTER":93.3306,"MEAN_ANOMALY":266.7778,"EPHEMERIS_TYPE":0,"CLASSIFICATION_TYPE":"U","NORAD_CAT_ID":60301,"ELEMENT_SET_NO":999,"REV_AT_EPOCH":7347,"BSTAR":-1.0783e-5,"MEAN_MOTION_DOT":-1.893e-5,"MEAN_MOTION_DDOT":0},{"OBJECT_NAME":"STARLINK-11128 [DTC]","OBJECT_ID":"2024-133B","EPOCH":"2025-10-31T16:57:31.696704","MEAN_MOTION":15.69689036,"ECCENTRICITY":9.14e-5,"INCLINATION":53.1576,"RA_OF_ASC_NODE":62.2268,"ARG_OF_PERICENTER":127.3804,"MEAN_ANOMALY":232.7297,"EPHEMERIS_TYPE":0,"CLASSIFICATION_TYPE":"U","NORAD_CAT_ID":60302,"ELEMENT_SET_NO":999,"REV_AT_EPOCH":7347,"BSTAR":-1.7114e-5,"MEAN_MOTION_DOT":-2.659e-5,"MEAN_MOTION_DDOT":0},{"OBJECT_NAME":"STARLINK-11227 [DTC]","OBJECT_ID":"2024-133C","EPOCH":"2025-10-31T15:18:45.963072","MEAN_MOTION":15.6971842,"ECCENTRICITY":7.42e-5,"INCLINATION":53.1576,"RA_OF_ASC_NODE":62.5111,"ARG_OF_PERICENTER":64.1774,"MEAN_ANOMALY":295.9321,"EPHEMERIS_TYPE":0,"CLASSIFICATION_TYPE":"U","NORAD_CAT_ID":60303,"ELEMENT_SET_NO":999,"REV_AT_EPOCH":7354,"BSTAR":-0.00010278,"MEAN_MOTION_DOT":-0.00013024,"MEAN_MOTION_DDOT":0},{"OBJECT_NAME":"STARLINK-11224 [DTC]","OBJECT_ID":"2024-133D","EPOCH":"2025-10-31T15:11:42.877824","MEAN_MOTION":15.6966432,"ECCENTRICITY":0.000105,"INCLINATION":53.1575,"RA_OF_ASC_NODE":62.4758,"ARG_OF_PERICENTER":104.9527,"MEAN_ANOMALY":255.1608,"EPHEMERIS_TYPE":0,"CLASSIFICATION_TYPE":"U","NORAD_CAT_ID":60304,"ELEMENT_SET_NO":999,"REV_AT_EPOCH":7354,"BSTAR":6.1276e-5,"MEAN_MOTION_DOT":6.827e-5,"MEAN_MOTION_DDOT":0},{"OBJECT_NAME":"STARLINK-11115 [DTC]","OBJECT_ID":"2024-133E","EPOCH":"2025-10-31T16:36:19.301184","MEAN_MOTION":15.6968986,"ECCENTRICITY":0.0001022,"INCLINATION":53.1582,"RA_OF_ASC_NODE":62.1287,"ARG_OF_PERICENTER":126.2286,"MEAN_ANOMALY":233.8827,"EPHEMERIS_TYPE":0,"CLASSIFICATION_TYPE":"U","NORAD_CAT_ID":60305,"ELEMENT_SET_NO":999,"REV_AT_EPOCH":7347,"BSTAR":-1.0596e-5,"MEAN_MOTION_DOT":-1.871e-5,"MEAN_MOTION_DDOT":0},{"OBJECT_NAME":"STARLINK-11109 [DTC]","OBJECT_ID":"2024-133F","EPOCH":"2025-10-31T18:00:56.286144","MEAN_MOTION":15.69690244,"ECCENTRICITY":8.25e-5,"INCLINATION":53.1571,"RA_OF_ASC_NODE":61.7806,"ARG_OF_PERICENTER":86.4279,"MEAN_ANOMALY":273.6833,"EPHEMERIS_TYPE":0,"CLASSIFICATION_TYPE":"U","NORAD_CAT_ID":60306,"ELEMENT_SET_NO":999,"REV_AT_EPOCH":7348,"BSTAR":-2.0878e-5,"MEAN_MOTION_DOT":-3.114e-5,"MEAN_MOTION_DDOT":0}]
